CS2                     
1 49262U 21088C   26068.73485932  .00018033  00000+0  56178-3 0  9999
2 49262  97.3928 134.2907 0011637  82.3491 277.9072 15.33255930245263
STARLINK-30934          
1 58395U 23178X   26068.13385654 -.00001159  00000+0 -27036-4 0  9997
2 58395  53.1615   3.9148 0001000 102.8812 257.2300 15.30187998129733
